{"fetched_at":"2026-04-01T16:59:04Z","count":11445,"tles":[{"name":"STARLINK-37182","line1":"1 68348U 26059AD  26090.66668981 -.01995570  00000+0 -10274-1 0  9990","line2":"2 68348  53.1593 252.5461 0000770  69.8164 238.3665 15.83565641  2571","category":"Starlink"}]}